NORAD_CAT_ID,OBJECT_NAME,OBJECT_TYPE,EPOCH,MEAN_MOTION,ECCENTRICITY,INCLINATION,RA_OF_ASC_NODE,ARG_OF_PERICENTER,MEAN_ANOMALY,BSTAR,MEAN_MOTION_DOT,MEAN_MOTION_DDOT,TLE_LINE0,TLE_LINE1,TLE_LINE2,SEMIMAJOR_AXIS,PERIOD,APOGEE,PERIGEE,DECAYED
53394.0,STARLINK-4544,PAYLOAD,2023-06-07 16:22:14,15.08835153,0.0001012,53.2169,310.0373,84.5831,275.5277,0.00011024,1.467e-05,0.0,0 STARLINK-4544,1 53394U 22097G   23158.68211266  .00001467  00000-0  11024-3 0  9994,2 53394  53.2169 310.0373 0001012  84.5831 275.5277 15.08835153 46949,6917.895,95.438,540.46,539.06,0.0
53394.0,STARLINK-4544,PAYLOAD,2023-06-08 09:51:28,15.08846587,0.0001485,53.2167,306.7692,78.1981,281.9178,-2.2157e-06,-3.23e-06,0.0,0 STARLINK-4544,1 53394U 22097G   23159.41074915 -.00000323  00000-0 -22157-5 0  9997,2 53394  53.2167 306.7692 0001485  78.1981 281.9178 15.08846587 47059,6917.86,95.437,540.753,538.698,0.0
53394.0,STARLINK-4544,PAYLOAD,2023-06-08 19:23:47,15.08848253,0.0001163,53.2171,304.9817,94.9562,265.1563,5.852e-05,6.44e-06,0.0,0 STARLINK-4544,1 53394U 22097G   23159.80818412  .00000644  00000-0  58520-4 0  9994,2 53394  53.2171 304.9817 0001163  94.9562 265.1563 15.08848253 46465,6917.855,95.437,540.525,538.916,0.0
53394.0,STARLINK-4544,PAYLOAD,2023-06-09 12:53:03,15.08803474,0.0001171,53.2154,301.7097,112.7293,247.3823,0.00056517,8.709e-05,0.0,0 STARLINK-4544,1 53394U 22097G   23160.53684036  .00008709  00000-0  56517-3 0  9992,2 53394  53.2154 301.7097 0001171 112.7293 247.3823 15.08803474 46579,6917.992,95.44,540.667,539.047,0.0
53394.0,STARLINK-4544,PAYLOAD,2023-06-09 16:03:47,15.08856594,0.0001118,53.2161,301.1157,86.4448,273.6672,0.0001886,2.716e-05,0.0,0 STARLINK-4544,1 53394U 22097G   23160.66929517  .00002716  00000-0  18860-3 0  9993,2 53394  53.2161 301.1157 0001118  86.4448 273.6672 15.08856594 47248,6917.83,95.437,540.468,538.921,0.0
53394.0,STARLINK-4544,PAYLOAD,2023-06-10 09:33:02,15.08841322,0.0001077,53.2154,297.8438,107.5218,252.5892,2.8284e-05,1.62e-06,0.0,0 STARLINK-4544,1 53394U 22097G   23161.39794620  .00000162  00000-0  28284-4 0  9994,2 53394  53.2154 297.8438 0001077 107.5218 252.5892 15.08841322 46700,6917.876,95.437,540.486,538.996,0.0
53394.0,STARLINK-4544,PAYLOAD,2023-06-10 12:43:48,15.08841687,0.0001311,53.2168,297.2493,120.8848,239.2274,2.2152e-05,6.5e-07,0.0,0 STARLINK-4544,1 53394U 22097G   23161.53042553  .00000065  00000-0  22152-4 0  9991,2 53394  53.2168 297.2493 0001311 120.8848 239.2274 15.08841687 47372,6917.875,95.437,540.647,538.833,0.0
53394.0,STARLINK-4544,PAYLOAD,2023-06-10 14:19:12,15.08839182,0.0001255,53.2173,296.9521,111.2107,248.902,1.1353e-05,-1.07e-06,0.0,0 STARLINK-4544,1 53394U 22097G   23161.59666774 -.00000107  00000-0  11353-4 0  9993,2 53394  53.2173 296.9521 0001255 111.2107 248.9020 15.08839182 47389,6917.883,95.438,540.616,538.88,0.0
53394.0,STARLINK-4544,PAYLOAD,2023-06-11 01:26:54,15.08836836,0.0001233,53.2183,294.8698,100.8608,259.2523,1.0167e-06,-2.72e-06,0.0,0 STARLINK-4544,1 53394U 22097G   23162.06035044 -.00000272  00000-0  10167-5 0  9992,2 53394  53.2183 294.8698 0001233 100.8608 259.2523 15.08836836 46800,6917.89,95.438,540.608,538.902,0.0
53394.0,STARLINK-4544,PAYLOAD,2023-06-11 10:59:13,15.08851629,0.0001143,53.2164,293.0889,107.8302,252.2815,-0.00034432,-5.765e-05,0.0,0 STARLINK-4544,1 53394U 22097G   23162.45779723 -.00005765  00000-0 -34432-3 0  9996,2 53394  53.2164 293.0889 0001143 107.8302 252.2815 15.08851629 47513,6917.845,95.437,540.501,538.919,0.0
53394.0,STARLINK-4544,PAYLOAD,2023-06-11 15:45:23,15.08838066,9.78e-05,53.216,292.1988,84.8736,275.2368,-0.00013826,-2.487e-05,0.0,0 STARLINK-4544,1 53394U 22097G   23162.65651709 -.00002487  00000-0 -13826-3 0  9993,2 53394  53.2160 292.1988 0000978  84.8736 275.2368 15.08838066 47540,6917.886,95.438,540.428,539.075,0.0
53394.0,STARLINK-4544,PAYLOAD,2023-06-12 01:17:41,15.08842722,9.81e-05,53.2165,290.4135,107.951,252.1589,-7.8013e-05,-1.529e-05,0.0,0 STARLINK-4544,1 53394U 22097G   23163.05395185 -.00001529  00000-0 -78013-4 0  9997,2 53394  53.2165 290.4135 0000981 107.9510 252.1589 15.08842722 47601,6917.872,95.437,540.416,539.058,0.0
53394.0,STARLINK-4544,PAYLOAD,2023-06-12 15:36:09,15.08836188,0.0001079,53.2164,287.7372,96.6754,263.4361,0.00010833,1.437e-05,0.0,0 STARLINK-4544,1 53394U 22097G   23163.65011308  .00001437  00000-0  10833-3 0  9996,2 53394  53.2164 287.7372 0001079  96.6754 263.4361 15.08836188 47045,6917.892,95.438,540.503,539.011,0.0
53394.0,STARLINK-4544,PAYLOAD,2023-06-13 01:08:28,15.08832634,0.0001064,53.2163,285.953,111.9767,248.1338,0.00014772,2.063e-05,0.0,0 STARLINK-4544,1 53394U 22097G   23164.04755530  .00002063  00000-0  14772-3 0  9994,2 53394  53.2163 285.9530 0001064 111.9767 248.1338 15.08832634 47753,6917.903,95.438,540.504,539.032,0.0
53394.0,STARLINK-4544,PAYLOAD,2023-06-14 00:59:16,15.08820713,9.91e-05,53.2155,281.4918,93.0348,267.0758,0.00027889,4.151e-05,0.0,0 STARLINK-4544,1 53394U 22097G   23165.04116293  .00004151  00000-0  27889-3 0  9995,2 53394  53.2155 281.4918 0000991  93.0348 267.0758 15.08820713 47254,6917.939,95.439,540.49,539.119,0.0
53394.0,STARLINK-4544,PAYLOAD,2023-06-14 10:31:35,15.08837557,0.0001189,53.2169,279.7071,83.3337,276.779,2.2871e-05,7.6e-07,0.0,0 STARLINK-4544,1 53394U 22097G   23165.43860032  .00000076  00000-0  22871-4 0  9994,2 53394  53.2169 279.7071 0001189  83.3337 276.7790 15.08837557 47313,6917.888,95.438,540.575,538.93,0.0
53394.0,STARLINK-4544,PAYLOAD,2023-06-15 13:33:08,15.08842797,0.0001142,53.2168,274.652,82.3759,277.7362,3.2015e-05,2.22e-06,0.0,0 STARLINK-4544,1 53394U 22097G   23166.56467720  .00000222  00000-0  32015-4 0  9990,2 53394  53.2168 274.6520 0001142  82.3759 277.7362 15.08842797 48130,6917.872,95.437,540.527,538.947,0.0
53394.0,STARLINK-4544,PAYLOAD,2023-06-15 16:43:54,15.08845657,0.0001154,53.2169,274.0569,82.8597,277.2526,5.4591e-05,5.81e-06,0.0,0 STARLINK-4544,1 53394U 22097G   23166.69715437  .00000581  00000-0  54591-4 0  9996,2 53394  53.2169 274.0569 0001154  82.8597 277.2526 15.08845657 47501,6917.863,95.437,540.526,538.93,0.0
53394.0,STARLINK-4544,PAYLOAD,2023-06-16 13:23:53,15.08852513,9.78e-05,53.2167,270.1903,96.5028,263.6075,0.00020752,3.018e-05,0.0,0 STARLINK-4544,1 53394U 22097G   23167.55826206  .00003018  00000-0  20752-3 0  9998,2 53394  53.2167 270.1903 0000978  96.5028 263.6075 15.08852513 48285,6917.842,95.437,540.384,539.031,0.0
53394.0,STARLINK-4544,PAYLOAD,2023-06-17 06:53:10,15.0883374,0.000116,53.2165,266.9196,91.1998,268.9127,-3.9372e-05,-9.14e-06,0.0,0 STARLINK-4544,1 53394U 22097G   23168.28692285 -.00000914  00000-0 -39372-4 0  9990,2 53394  53.2165 266.9196 0001160  91.1998 268.9127 15.08833740 47748,6917.9,95.438,540.567,538.962,0.0
53394.0,STARLINK-4544,PAYLOAD,2023-06-17 13:14:43,15.08823626,0.0001032,53.2167,265.7302,76.7603,283.3504,-0.00011758,-2.158e-05,0.0,0 STARLINK-4544,1 53394U 22097G   23168.55189325 -.00002158  00000-0 -11758-3 0  9995,2 53394  53.2167 265.7302 0001032  76.7603 283.3504 15.08823626 48435,6917.93,95.439,540.509,539.082,0.0
53394.0,STARLINK-4544,PAYLOAD,2023-06-18 06:43:57,15.08835947,0.0001099,53.2166,262.4601,70.5557,289.5554,-3.1198e-05,-7.84e-06,0.0,0 STARLINK-4544,1 53394U 22097G   23169.28052764 -.00000784  00000-0 -31198-4 0  9996,2 53394  53.2166 262.4601 0001099  70.5557 289.5554 15.08835947 47894,6917.893,95.438,540.518,538.998,0.0
53394.0,STARLINK-4544,PAYLOAD,2023-06-18 13:05:29,15.08842643,0.0001035,53.2167,261.2706,71.8697,288.2408,2.5336e-05,1.15e-06,0.0,0 STARLINK-4544,1 53394U 22097G   23169.54548176  .00000115  00000-0  25336-4 0  9995,2 53394  53.2167 261.2706 0001035  71.8697 288.2408 15.08842643 48589,6917.872,95.437,540.453,539.021,0.0
53394.0,STARLINK-4544,PAYLOAD,2023-06-18 16:16:15,15.08846796,0.0001059,53.2171,260.675,70.3025,289.8081,-1.5527e-05,-5.35e-06,0.0,0 STARLINK-4544,1 53394U 22097G   23169.67796034 -.00000535  00000-0 -15527-4 0  9996,2 53394  53.2171 260.6750 0001059  70.3025 289.8081 15.08846796 47958,6917.86,95.437,540.457,538.992,0.0
53394.0,STARLINK-4544,PAYLOAD,2023-06-19 12:56:16,15.08849824,0.0001216,53.2157,256.8104,58.6076,301.5035,0.00044323,6.775e-05,0.0,0 STARLINK-4544,1 53394U 22097G   23170.53908162  .00006775  00000-0  44323-3 0  9995,2 53394  53.2157 256.8104 0001216  58.6076 301.5035 15.08849824 48735,6917.85,95.437,540.557,538.874,0.0
53394.0,STARLINK-4544,PAYLOAD,2023-06-19 22:28:35,15.08844632,0.0001188,53.2153,255.0261,57.1087,303.0019,0.00022035,3.221e-05,0.0,0 STARLINK-4544,1 53394U 22097G   23170.93652336  .00003221  00000-0  22035-3 0  9997,2 53394  53.2153 255.0261 0001188  57.1087 303.0019 15.08844632 48146,6917.866,95.437,540.553,538.909,0.0
53394.0,STARLINK-4544,PAYLOAD,2023-06-20 08:00:54,15.08837398,0.0001169,53.2153,253.2437,62.7808,297.3303,-0.00011038,-2.044e-05,0.0,0 STARLINK-4544,1 53394U 22097G   23171.33396594 -.00002044  00000-0 -11038-3 0  9998,2 53394  53.2153 253.2437 0001169  62.7808 297.3303 15.08837398 48202,6917.888,95.438,540.562,538.945,0.0
53394.0,STARLINK-4544,PAYLOAD,2023-06-21 12:37:50,15.08847637,0.0001141,53.2157,247.8917,65.7077,294.4034,5.8222e-06,-1.95e-06,0.0,0 STARLINK-4544,1 53394U 22097G   23172.52628275 -.00000195  00000-0  58222-5 0  9996,2 53394  53.2157 247.8917 0001141  65.7077 294.4034 15.08847637 48384,6917.857,95.437,540.511,538.933,0.0
53394.0,STARLINK-4544,PAYLOAD,2023-06-22 10:53:15,15.0883706,0.0001119,53.2159,243.7271,74.1036,286.0079,0.00010127,1.324e-05,0.0,0 STARLINK-4544,1 53394U 22097G   23173.45364678  .00001324  00000-0  10127-3 0  9997,2 53394  53.2159 243.7271 0001119  74.1036 286.0079 15.08837060 48529,6917.889,95.438,540.528,538.98,0.0
53394.0,STARLINK-4544,PAYLOAD,2023-06-22 12:28:36,15.08861807,9.61e-05,53.2158,243.4284,78.7649,281.3451,0.00027455,4.087e-05,0.0,0 STARLINK-4544,1 53394U 22097G   23173.51986678  .00004087  00000-0  27455-3 0  9995,2 53394  53.2158 243.4284 0000961  78.7649 281.3451 15.08861807 48532,6917.814,95.436,540.344,539.014,0.0
